#aV2020 10 28  0  0  0.00000000     288 DD+AD WGS84 FIT  NGA
## 2129 259200.00000000   300.00000000 59150 0.0000000000000
+   31     1  2  3  4  5  6  7  8  9 10 11 12 13 15 16 17 18
+         19 20 21 22 23 24 25 26 27 28 29 30 31 32  0  0  0
+          0  0  0  0  0  0  0  0  0  0  0  0  0  0  0  0  0
+          0  0  0  0  0  0  0  0  0  0  0  0  0  0  0  0  0
+          0  0  0  0  0  0  0  0  0  0  0  0  0  0  0  0  0
++         2  2  2  2  2  2  2  2  2  2  2  2  2  2  2  2  2
++         2  2  2  2  2  2  2  2  2  2  2  2  2  2  0  0  0
++         0  0  0  0  0  0  0  0  0  0  0  0  0  0  0  0  0
++         0  0  0  0  0  0  0  0  0  0  0  0  0  0  0  0  0
++         0  0  0  0  0  0  0  0  0  0  0  0  0  0  0  0  0
%c cc cc ccc ccc cccc cccc cccc cccc ccccc ccccc ccccc ccccc
%c cc cc ccc ccc cccc cccc cccc cccc ccccc ccccc ccccc ccccc
%f  0.0000000  0.000000000  0.00000000000  0.000000000000000
%f  0.0000000  0.000000000  0.00000000000  0.000000000000000
%i    0    0    0    0      0      0      0      0         0
%i    0    0    0    0      0      0      0      0         0
/*      NGA, ST. LOUIS,MO.                                  
/*   EPHEMERIS COMPUTED FROM 2 DAYS OF DATA                 
/*   EPOCHA v5 SMOOTHER                                     
/*   G1762 IERS2010 SATAF SATAPC                            
*  2020 10 28  2 40  0.00000000
P  1   4713.510455 -16921.834237 -20053.923659    812.616023                    
V  1  23116.508880  -9543.989694  13967.691459     -0.028936                    
P  2 -20988.726019  15696.612812   4866.749772   -535.205859                    
V  2  -6004.500156    292.396975 -30983.150590     -0.048550                    
P  3  -6619.116252 -19141.494286 -17316.658080   -338.020399                    
V  3  18762.695646  11155.757544 -19499.651773     -0.101843                    
P  4    417.049960 -26268.275212   3749.591847   -149.662706                    
V  4   3364.178806  -4403.096187 -31295.794649     -0.037780                    
P  5 -13786.453953   8710.520070  20843.825573    -24.458769                    
V  5 -22140.265715 -15135.663411  -8075.785115     -0.009256                    
P  6 -24345.097078   4328.447098  -9690.898890   -335.759083                    
V  6  10346.913056  -7005.799578 -28919.434866     -0.020804                    
P  7 -12996.847543 -10502.624104  21065.316380   -402.449972                    
V  7  23328.080432 -11341.089244   8393.685826     -0.078108                    
P  8   6100.393120 -24888.919812   6436.245171    -53.008662                    
V  8   2113.918355   8370.605561  30687.156983     -0.013822                    
P  9  -8651.884731 -20730.296386  14096.250263   -306.013094                    
V  9   3554.948845 -17832.680096 -23955.028382     -0.050607                    
P 10  23519.090243  10797.790143  -6465.513054   -490.496107                    
V 10   5484.498350   6604.198702  30297.531270     -0.093307                    
P 11   9104.120350 -23567.999615  -9221.033551   -124.824999                    
V 11   9476.116090  -6662.567318  27432.978098      0.105537                    
P 12   3108.728831  18811.619517 -18787.960368     48.215208                    
V 12 -18824.184496 -13737.343463 -16935.958775     -0.051252                    
P 13 -13065.922367  19165.671815  12703.269071     59.042975                    
V 13   1273.167708 -16473.710267  26005.162167      0.037995                    
P 15  -3112.568431  25612.785378   5073.624030   -193.979582                    
V 15  -4274.511305  -6862.166604  30347.419005      0.025915                    
P 16  13562.062769  -7527.685150  21401.117362   -228.401809                    
V 16  20965.453645  17923.192880  -6470.734516     -0.052344                    
P 17 -14218.361953  -3058.630642 -21795.173935    345.930468                    
V 17   4126.010216 -28359.245221   1227.138137      0.053231                    
P 18  13846.564295   9442.877971  20607.238469    313.462983                    
V 18 -23561.555126  11399.287476  10550.658427      0.054500                    
P 19 -15398.015198   3916.368166 -21556.027312    -86.012089                    
V 19   4439.788886 -26289.178544  -8126.742393      0.050300                    
P 20  21002.458655  15398.892022   5796.798116    526.243515                    
V 20  -8112.230570   -417.549918  29854.628244     -0.001361                    
P 21  17078.149366 -17313.408021  -9553.382187     62.293309                    
V 21  13134.976401  -3779.267111  28502.371587      0.039251                    
P 22   1155.072086 -16759.092082 -20406.386910   -737.799629                    
V 22  23488.201878  12164.319405  -8426.140858      0.049242                    
P 23  20649.192043  16377.457455   3363.642424     92.472876                    
V 23  -5108.453091    -68.322772  31374.667538      0.055916                    
P 24  -7311.809847  18700.223066 -17410.308170      7.223629                    
V 24 -20269.904965   8632.793942  18395.538865     -0.003563                    
P 25  15087.957546  19428.832455 -10595.078846     12.387263                    
V 25 -11906.310238  -5656.597029 -27700.477545      0.062197                    
P 26  21956.065761   1104.554242  15042.107530    302.397214                    
V 26  14897.759843  12170.520062 -22345.010819      0.061584                    
P 27  12201.401475 -17051.710217  15946.431303   -428.294955                    
V 27    123.146061  20702.012934  22175.256684     -0.085235                    
P 28 -22175.502187 -11880.121579  -7666.075097    662.545384                    
V 28  -6486.583397  -8687.408379  30131.737133     -0.044996                    
P 29   4958.843251  22774.818870  12654.325265   -224.582367                    
V 29  -4164.623310  15651.154573 -26503.343749     -0.078325                    
P 30 -20968.264053  -3708.829047  16057.096386   -325.313933                    
V 30  17714.519919 -10111.498665  20644.860661     -0.067805                    
P 31  25194.717243  -5351.797467  -7467.537309    -77.739386                    
V 31  -7547.016145   5913.867914 -29477.619369     -0.023959                    
P 32  15039.848509   2972.538636 -21608.794574    362.005763                    
V 32  -2227.896022  27560.458972   2076.853983      0.036984                    
EOF
